[
    {
        "Altitude(m)": 702671.4748509658,
        "Argument of Periapsis(deg)": 0.0011390121186627068,
        "Eccentricity": 0.0,
        "Inclination(deg)": 45.0,
        "Latitude(deg)": 12.301943199924473,
        "Longitude(deg)": 82.4770860830337,
        "Mean Anomaly(deg)": 17.516921664748082,
        "RAAN(deg)": 169.9989248058542,
        "Satellite Name": "Constellation 1 749",
        "Satellite Number": 749,
        "Semi-Major Axis(m)": 7083131.272910544,
        "Time(s)": 19
    },
    {
        "Altitude(m)": 702671.7037990581,
        "Argument of Periapsis(deg)": 0.0011989601249081123,
        "Eccentricity": 0.0,
        "Inclination(deg)": 45.0,
        "Latitude(deg)": 12.34412158176036,
        "Longitude(deg)": 82.51788089591292,
        "Mean Anomaly(deg)": 17.57762280499797,
        "RAAN(deg)": 169.9988682166886,
        "Satellite Name": "Constellation 1 749",
        "Satellite Number": 749,
        "Semi-Major Axis(m)": 7083131.272910544,
        "Time(s)": 20
    },
    {
        "Altitude(m)": 702671.9514537753,
        "Argument of Periapsis(deg)": 0.001258908131153518,
        "Eccentricity": 0.0,
        "Inclination(deg)": 45.0,
        "Latitude(deg)": 12.386292472504675,
        "Longitude(deg)": 82.55869011378967,
        "Mean Anomaly(deg)": 17.638323945247883,
        "RAAN(deg)": 169.99881162752305,
        "Satellite Name": "Constellation 1 749",
        "Satellite Number": 749,
        "Semi-Major Axis(m)": 7083131.272910544,
        "Time(s)": 21
    },
    {
        "Altitude(m)": 702672.217795852,
        "Argument of Periapsis(deg)": 0.0013188561373989236,
        "Eccentricity": 0.0,
        "Inclination(deg)": 45.0,
        "Latitude(deg)": 12.428455843243063,
        "Longitude(deg)": 82.59951362120647,
        "Mean Anomaly(deg)": 17.69902508549777,
        "RAAN(deg)": 169.9987550383575,
        "Satellite Name": "Constellation 1 749",
        "Satellite Number": 749,
        "Semi-Major Axis(m)": 7083131.272910544,
        "Time(s)": 22
    },
    {
        "Altitude(m)": 702672.5028059514,
        "Argument of Periapsis(deg)": 0.0013788041436443293,
        "Eccentricity": 0.0,
        "Inclination(deg)": 45.0,
        "Latitude(deg)": 12.470611665033386,
        "Longitude(deg)": 82.64035180702469,
        "Mean Anomaly(deg)": 17.75972622574768,
        "RAAN(deg)": 169.9986984491919,
        "Satellite Name": "Constellation 1 749",
        "Satellite Number": 749,
        "Semi-Major Axis(m)": 7083131.272910544,
        "Time(s)": 23
    },
    {
        "Altitude(m)": 702672.8064646597,
        "Argument of Periapsis(deg)": 0.001438752149889735,
        "Eccentricity": 0.0,
        "Inclination(deg)": 45.0,
        "Latitude(deg)": 12.512759908905123,
        "Longitude(deg)": 82.68120455584211,
        "Mean Anomaly(deg)": 17.820427365997567,
        "RAAN(deg)": 169.99864186002634,
        "Satellite Name": "Constellation 1 749",
        "Satellite Number": 749,
        "Semi-Major Axis(m)": 7083131.272910544,
        "Time(s)": 24
    },
    {
        "Altitude(m)": 702673.128752486,
        "Argument of Periapsis(deg)": 0.0014987001561351404,
        "Eccentricity": 0.0,
        "Inclination(deg)": 45.0,
        "Latitude(deg)": 12.554900545859555,
        "Longitude(deg)": 82.72207192038142,
        "Mean Anomaly(deg)": 17.881128506247478,
        "RAAN(deg)": 169.9985852708608,
        "Satellite Name": "Constellation 1 749",
        "Satellite Number": 749,
        "Semi-Major Axis(m)": 7083131.272910544,
        "Time(s)": 25
    },
    {
        "Altitude(m)": 702673.4696498587,
        "Argument of Periapsis(deg)": 0.001558648162380546,
        "Eccentricity": 0.0,
        "Inclination(deg)": 45.0,
        "Latitude(deg)": 12.5970335468696,
        "Longitude(deg)": 82.76295395339294,
        "Mean Anomaly(deg)": 17.941829646497364,
        "RAAN(deg)": 169.9985286816952,
        "Satellite Name": "Constellation 1 749",
        "Satellite Number": 749,
        "Semi-Major Axis(m)": 7083131.272910544,
        "Time(s)": 26
    },
    {
        "Altitude(m)": 702673.8291371256,
        "Argument of Periapsis(deg)": 0.0016185961686259519,
        "Eccentricity": 0.0,
        "Inclination(deg)": 45.0,
        "Latitude(deg)": 12.639158882879736,
        "Longitude(deg)": 82.8038507076549,
        "Mean Anomaly(deg)": 18.002530786747275,
        "RAAN(deg)": 169.99847209252962,
        "Satellite Name": "Constellation 1 749",
        "Satellite Number": 749,
        "Semi-Major Axis(m)": 7083131.272910544,
        "Time(s)": 27
    },
    {
        "Altitude(m)": 702674.2071945611,
        "Argument of Periapsis(deg)": 0.0016785441748713573,
        "Eccentricity": 0.0,
        "Inclination(deg)": 45.0,
        "Latitude(deg)": 12.681276524805853,
        "Longitude(deg)": 82.84476223597349,
        "Mean Anomaly(deg)": 18.06323192699719,
        "RAAN(deg)": 169.99841550336407,
        "Satellite Name": "Constellation 1 749",
        "Satellite Number": 749,
        "Semi-Major Axis(m)": 7083131.272910544,
        "Time(s)": 28
    },
    {
        "Altitude(m)": 702674.6038023592,
        "Argument of Periapsis(deg)": 0.001738492181116763,
        "Eccentricity": 0.0,
        "Inclination(deg)": 45.0,
        "Latitude(deg)": 12.723386443535137,
        "Longitude(deg)": 82.88568859118269,
        "Mean Anomaly(deg)": 18.123933067247076,
        "RAAN(deg)": 169.9983589141985,
        "Satellite Name": "Constellation 1 749",
        "Satellite Number": 749,
        "Semi-Major Axis(m)": 7083131.272910544,
        "Time(s)": 29
    },
    {
        "Altitude(m)": 702675.0189406445,
        "Argument of Periapsis(deg)": 0.0017984401873621684,
        "Eccentricity": 0.0,
        "Inclination(deg)": 45.0,
        "Latitude(deg)": 12.765488609925931,
        "Longitude(deg)": 82.92662965804755,
        "Mean Anomaly(deg)": 18.184634207496988,
        "RAAN(deg)": 169.99830232503294,
        "Satellite Name": "Constellation 1 749",
        "Satellite Number": 749,
        "Semi-Major Axis(m)": 7083131.272910544,
        "Time(s)": 30
    },
    {
        "Altitude(m)": 702675.4525894418,
        "Argument of Periapsis(deg)": 0.0018583881936075745,
        "Eccentricity": 0.0,
        "Inclination(deg)": 45.0,
        "Latitude(deg)": 12.807582994807925,
        "Longitude(deg)": 82.96758582565244,
        "Mean Anomaly(deg)": 18.245335347746874,
        "RAAN(deg)": 169.99824573586736,
        "Satellite Name": "Constellation 1 749",
        "Satellite Number": 749,
        "Semi-Major Axis(m)": 7083131.272910544,
        "Time(s)": 31
    },
    {
        "Altitude(m)": 702675.9047287242,
        "Argument of Periapsis(deg)": 0.0019183361998529795,
        "Eccentricity": 0.0,
        "Inclination(deg)": 45.0,
        "Latitude(deg)": 12.84966956898158,
        "Longitude(deg)": 83.00855697881853,
        "Mean Anomaly(deg)": 18.306036487996785,
        "RAAN(deg)": 169.99818914670178,
        "Satellite Name": "Constellation 1 749",
        "Satellite Number": 749,
        "Semi-Major Axis(m)": 7083131.272910544,
        "Time(s)": 32
    },
    {
        "Altitude(m)": 702676.3753383721,
        "Argument of Periapsis(deg)": 0.0019782842060983856,
        "Eccentricity": 0.0,
        "Inclination(deg)": 45.0,
        "Latitude(deg)": 12.891748303218307,
        "Longitude(deg)": 83.04954317049234,
        "Mean Anomaly(deg)": 18.36673762824667,
        "RAAN(deg)": 169.99813255753622,
        "Satellite Name": "Constellation 1 749",
        "Satellite Number": 749,
        "Semi-Major Axis(m)": 7083131.272910544,
        "Time(s)": 33
    },
    {
        "Altitude(m)": 702676.8643981972,
        "Argument of Periapsis(deg)": 0.0020382322123437906,
        "Eccentricity": 0.0,
        "Inclination(deg)": 45.0,
        "Latitude(deg)": 12.933819168260326,
        "Longitude(deg)": 83.09054445364855,
        "Mean Anomaly(deg)": 18.427438768496582,
        "RAAN(deg)": 169.99807596837064,
        "Satellite Name": "Constellation 1 749",
        "Satellite Number": 749,
        "Semi-Major Axis(m)": 7083131.272910544,
        "Time(s)": 34
    },
    {
        "Altitude(m)": 702677.3718879218,
        "Argument of Periapsis(deg)": 0.002098180218589197,
        "Eccentricity": 0.0,
        "Inclination(deg)": 45.0,
        "Latitude(deg)": 12.97588213482054,
        "Longitude(deg)": 83.13156088129018,
        "Mean Anomaly(deg)": 18.488139908746472,
        "RAAN(deg)": 169.9980193792051,
        "Satellite Name": "Constellation 1 749",
        "Satellite Number": 749,
        "Semi-Major Axis(m)": 7083131.272910544,
        "Time(s)": 35
    },
    {
        "Altitude(m)": 702677.897787202,
        "Argument of Periapsis(deg)": 0.002158128224834602,
        "Eccentricity": 0.0,
        "Inclination(deg)": 45.0,
        "Latitude(deg)": 13.017937173582407,
        "Longitude(deg)": 83.17259250644855,
        "Mean Anomaly(deg)": 18.548841048996355,
        "RAAN(deg)": 169.99796279003948,
        "Satellite Name": "Constellation 1 749",
        "Satellite Number": 749,
        "Semi-Major Axis(m)": 7083131.272910544,
        "Time(s)": 36
    },
    {
        "Altitude(m)": 702678.4420756175,
        "Argument of Periapsis(deg)": 0.002218076231080008,
        "Eccentricity": 0.0,
        "Inclination(deg)": 45.0,
        "Latitude(deg)": 13.05998425519983,
        "Longitude(deg)": 83.21363921408643,
        "Mean Anomaly(deg)": 18.60954218924627,
        "RAAN(deg)": 169.99790620087393,
        "Satellite Name": "Constellation 1 749",
        "Satellite Number": 749,
        "Semi-Major Axis(m)": 7083131.272910544,
        "Time(s)": 37
    }
]